{
  "type": "FeatureCollection",
  "features": [
    {
      "type": "Feature",
      "properties": {
        "norad_id": 66907,
        "name": "1998-067XT",
        "group": "stations",
        "lat": 12.312288123997298,
        "lon": -177.23026215417372,
        "alt_km": 418.0186403857897,
        "timestamp": "2025-12-06T14:35:35.929678+00:00",
        "meta_object_name": "1998-067XT",
        "meta_object_id": "1998-067XT",
        "meta_epoch": "2025-12-05T23:03:20.722464",
        "meta_mean_motion": 15.50347782,
        "meta_eccentricity": 0.00053008,
        "meta_inclination": 51.6292,
        "meta_ra_of_asc_node": 176.0227,
        "meta_arg_of_pericenter": 190.4344,
        "meta_mean_anomaly": 169.6536,
        "meta_ephemeris_type": 0,
        "meta_classification_type": "U",
        "meta_norad_cat_id": 66907,
        "meta_element_set_no": 999,
        "meta_rev_at_epoch": 56,
        "meta_bstar": 0.0012672984,
        "meta_mean_motion_dot": 0.00073478,
        "meta_mean_motion_ddot": 0,
        "tle_line1": "1 66907U 98067XT  25339.96065651  .00073478  00000+0  12673-2 0  9997",
        "tle_line2": "2 66907  51.6292 176.0227 0005300 190.4344 169.6536 15.50347782   562"
      },
      "geometry": {
        "type": "Point",
        "coordinates": [
          -177.23026215417372,
          12.312288123997298
        ]
      }
    },
    {
      "type": "Feature",
      "properties": {
        "norad_id": 66908,
        "name": "1998-067XU",
        "group": "stations",
        "lat": 12.841386719997292,
        "lon": -176.7853003858985,
        "alt_km": 417.90904941271583,
        "timestamp": "2025-12-06T14:35:35.929688+00:00",
        "meta_object_name": "1998-067XU",
        "meta_object_id": "1998-067XU",
        "meta_epoch": "2025-12-06T00:36:01.329696",
        "meta_mean_motion": 15.50421337,
        "meta_eccentricity": 0.00055167,
        "meta_inclination": 51.6293,
        "meta_ra_of_asc_node": 175.7016,
        "meta_arg_of_pericenter": 189.9081,
        "meta_mean_anomaly": 170.1801,
        "meta_ephemeris_type": 0,
        "meta_classification_type": "U",
        "meta_norad_cat_id": 66908,
        "meta_element_set_no": 999,
        "meta_rev_at_epoch": 57,
        "meta_bstar": 0.0011822009,
        "meta_mean_motion_dot": 0.00068654,
        "meta_mean_motion_ddot": 0,
        "tle_line1": "1 66908U 98067XU  25340.02501539  .00068654  00000+0  11822-2 0  9992",
        "tle_line2": "2 66908  51.6293 175.7016 0005516 189.9081 170.1801 15.50421337   578"
      },
      "geometry": {
        "type": "Point",
        "coordinates": [
          -176.7853003858985,
          12.841386719997292
        ]
      }
    },
    {
      "type": "Feature",
      "properties": {
        "norad_id": 66909,
        "name": "1998-067XV",
        "group": "stations",
        "lat": 12.962853496504382,
        "lon": -176.682547258083,
        "alt_km": 417.67203997238084,
        "timestamp": "2025-12-06T14:35:35.929698+00:00",
        "meta_object_name": "1998-067XV",
        "meta_object_id": "1998-067XV",
        "meta_epoch": "2025-12-05T18:24:43.911360",
        "meta_mean_motion": 15.50399103,
        "meta_eccentricity": 0.00053649,
        "meta_inclination": 51.6292,
        "meta_ra_of_asc_node": 176.9805,
        "meta_arg_of_pericenter": 189.9534,
        "meta_mean_anomaly": 170.135,
        "meta_ephemeris_type": 0,
        "meta_classification_type": "U",
        "meta_norad_cat_id": 66909,
        "meta_element_set_no": 999,
        "meta_rev_at_epoch": 53,
        "meta_bstar": 0.0014470913,
        "meta_mean_motion_dot": 0.00084238,
        "meta_mean_motion_ddot": 0,
        "tle_line1": "1 66909U 98067XV  25339.76717490  .00084238  00000+0  14471-2 0  9996",
        "tle_line2": "2 66909  51.6292 176.9805 0005364 189.9534 170.1350 15.50399103   531"
      },
      "geometry": {
        "type": "Point",
        "coordinates": [
          -176.682547258083,
          12.962853496504382
        ]
      }
    },
    {
      "type": "Feature",
      "properties": {
        "norad_id": 66910,
        "name": "1998-067XW",
        "group": "stations",
        "lat": 16.18242340900298,
        "lon": -173.90654031275662,
        "alt_km": 416.8167473737576,
        "timestamp": "2025-12-06T14:35:35.929708+00:00",
        "meta_object_name": "1998-067XW",
        "meta_object_id": "1998-067XW",
        "meta_epoch": "2025-12-06T00:35:02.981184",
        "meta_mean_motion": 15.50697107,
        "meta_eccentricity": 0.00063134,
        "meta_inclination": 51.6293,
        "meta_ra_of_asc_node": 175.6976,
        "meta_arg_of_pericenter": 176.991,
        "meta_mean_anomaly": 183.1118,
        "meta_ephemeris_type": 0,
        "meta_classification_type": "U",
        "meta_norad_cat_id": 66910,
        "meta_element_set_no": 999,
        "meta_rev_at_epoch": 57,
        "meta_bstar": 0.0012769475,
        "meta_mean_motion_dot": 0.00075,
        "meta_mean_motion_ddot": 0,
        "tle_line1": "1 66910U 98067XW  25340.02434006  .00075000  00000+0  12769-2 0  9993",
        "tle_line2": "2 66910  51.6293 175.6976 0006313 176.9910 183.1118 15.50697107   573"
      },
      "geometry": {
        "type": "Point",
        "coordinates": [
          -173.90654031275662,
          16.18242340900298
        ]
      }
    },
    {
      "type": "Feature",
      "properties": {
        "norad_id": 66911,
        "name": "1998-067XX",
        "group": "stations",
        "lat": 16.541376214218918,
        "lon": -173.5897921403239,
        "alt_km": 416.47854741321225,
        "timestamp": "2025-12-06T14:35:35.929721+00:00",
        "meta_object_name": "1998-067XX",
        "meta_object_id": "1998-067XX",
        "meta_epoch": "2025-12-06T00:34:57.951840",
        "meta_mean_motion": 15.50761209,
        "meta_eccentricity": 0.00062252,
        "meta_inclination": 51.6293,
        "meta_ra_of_asc_node": 175.6973,
        "meta_arg_of_pericenter": 177.1118,
        "meta_mean_anomaly": 182.9908,
        "meta_ephemeris_type": 0,
        "meta_classification_type": "U",
        "meta_norad_cat_id": 66911,
        "meta_element_set_no": 999,
        "meta_rev_at_epoch": 56,
        "meta_bstar": 0.0014212486,
        "meta_mean_motion_dot": 0.00083811,
        "meta_mean_motion_ddot": 0,
        "tle_line1": "1 66911U 98067XX  25340.02428185  .00083811  00000+0  14212-2 0  9999",
        "tle_line2": "2 66911  51.6293 175.6973 0006225 177.1118 182.9908 15.50761209   564"
      },
      "geometry": {
        "type": "Point",
        "coordinates": [
          -173.5897921403239,
          16.541376214218918
        ]
      }
    },
    {
      "type": "Feature",
      "properties": {
        "norad_id": 66912,
        "name": "1998-067XY",
        "group": "stations",
        "lat": 11.672597411695858,
        "lon": -177.76671695018408,
        "alt_km": 418.5049440453249,
        "timestamp": "2025-12-06T14:35:35.929732+00:00",
        "meta_object_name": "1998-067XY",
        "meta_object_id": "1998-067XY",
        "meta_epoch": "2025-12-06T00:36:19.370880",
        "meta_mean_motion": 15.50259838,
        "meta_eccentricity": 0.000539,
        "meta_inclination": 51.6295,
        "meta_ra_of_asc_node": 175.703,
        "meta_arg_of_pericenter": 190.1033,
        "meta_mean_anomaly": 169.9848,
        "meta_ephemeris_type": 0,
        "meta_classification_type": "U",
        "meta_norad_cat_id": 66912,
        "meta_element_set_no": 999,
        "meta_rev_at_epoch": 56,
        "meta_bstar": 0.001060792,
        "meta_mean_motion_dot": 0.00061143,
        "meta_mean_motion_ddot": 0,
        "tle_line1": "1 66912U 98067XY  25340.02522420  .00061143  00000+0  10608-2 0  9996",
        "tle_line2": "2 66912  51.6295 175.7030 0005390 190.1033 169.9848 15.50259838   563"
      },
      "geometry": {
        "type": "Point",
        "coordinates": [
          -177.76671695018408,
          11.672597411695858
        ]
      }
    }
  ]
}